{
  "type": "FeatureCollection",
  "features": [
    {
      "type": "Feature",
      "properties": {
        "norad_id": 66691,
        "name": "TRANSPORTER-15AB",
        "group": "last-30-days",
        "lat": 34.9704939577325,
        "lon": -101.78045006643808,
        "alt_km": 511.14735541989467,
        "timestamp": "2025-12-27T11:23:18.578171+00:00",
        "meta_object_name": "TRANSPORTER-15AB",
        "meta_object_id": "2025-276AB",
        "meta_epoch": "2025-12-27T04:25:20.514144",
        "meta_mean_motion": 15.17393448,
        "meta_eccentricity": 0.0003883,
        "meta_inclination": 97.4411,
        "meta_ra_of_asc_node": 72.6894,
        "meta_arg_of_pericenter": 229.1477,
        "meta_mean_anomaly": 130.9421,
        "meta_ephemeris_type": 0,
        "meta_classification_type": "U",
        "meta_norad_cat_id": 66691,
        "meta_element_set_no": 999,
        "meta_rev_at_epoch": 431,
        "meta_bstar": 0.00066818,
        "meta_mean_motion_dot": 0.00013301,
        "meta_mean_motion_ddot": 0,
        "tle_line1": "1 66691U 25276AB  25361.18426521  .00013301  00000+0  66818-3 0  9995",
        "tle_line2": "2 66691  97.4411  72.6894 0003883 229.1477 130.9421 15.17393448  4319"
      },
      "geometry": {
        "type": "Point",
        "coordinates": [
          -101.78045006643808,
          34.9704939577325
        ]
      }
    },
    {
      "type": "Feature",
      "properties": {
        "norad_id": 66692,
        "name": "TRANSPORTER-15AC",
        "group": "last-30-days",
        "lat": 16.60606499660309,
        "lon": -104.78007381148515,
        "alt_km": 513.8923577181686,
        "timestamp": "2025-12-27T11:23:18.578183+00:00",
        "meta_object_name": "TRANSPORTER-15AC",
        "meta_object_id": "2025-276AC",
        "meta_epoch": "2025-12-27T04:20:28.834656",
        "meta_mean_motion": 15.1746374,
        "meta_eccentricity": 0.0001859,
        "meta_inclination": 97.4412,
        "meta_ra_of_asc_node": 72.6976,
        "meta_arg_of_pericenter": 241.0731,
        "meta_mean_anomaly": 119.0316,
        "meta_ephemeris_type": 0,
        "meta_classification_type": "U",
        "meta_norad_cat_id": 66692,
        "meta_element_set_no": 999,
        "meta_rev_at_epoch": 431,
        "meta_bstar": 0.00038922,
        "meta_mean_motion_dot": 7.729e-05,
        "meta_mean_motion_ddot": 0,
        "tle_line1": "1 66692U 25276AC  25361.18088929  .00007729  00000+0  38922-3 0  9994",
        "tle_line2": "2 66692  97.4412  72.6976 0001859 241.0731 119.0316 15.17463740  4313"
      },
      "geometry": {
        "type": "Point",
        "coordinates": [
          -104.78007381148515,
          16.60606499660309
        ]
      }
    },
    {
      "type": "Feature",
      "properties": {
        "norad_id": 66693,
        "name": "TRANSPORTER-15AD",
        "group": "last-30-days",
        "lat": 12.993706807818832,
        "lon": -105.3070955606553,
        "alt_km": 513.713902136873,
        "timestamp": "2025-12-27T11:23:18.578193+00:00",
        "meta_object_name": "TRANSPORTER-15AD",
        "meta_object_id": "2025-276AD",
        "meta_epoch": "2025-12-27T04:19:35.411808",
        "meta_mean_motion": 15.17746163,
        "meta_eccentricity": 0.0003297,
        "meta_inclination": 97.4366,
        "meta_ra_of_asc_node": 72.6767,
        "meta_arg_of_pericenter": 253.9631,
        "meta_mean_anomaly": 106.124,
        "meta_ephemeris_type": 0,
        "meta_classification_type": "U",
        "meta_norad_cat_id": 66693,
        "meta_element_set_no": 999,
        "meta_rev_at_epoch": 431,
        "meta_bstar": 0.00085553,
        "meta_mean_motion_dot": 0.00017231,
        "meta_mean_motion_ddot": 0,
        "tle_line1": "1 66693U 25276AD  25361.18027097  .00017231  00000+0  85553-3 0  9995",
        "tle_line2": "2 66693  97.4366  72.6767 0003297 253.9631 106.1240 15.17746163  4315"
      },
      "geometry": {
        "type": "Point",
        "coordinates": [
          -105.3070955606553,
          12.993706807818832
        ]
      }
    },
    {
      "type": "Feature",
      "properties": {
        "norad_id": 66694,
        "name": "YAM-9",
        "group": "last-30-days",
        "lat": 4.590112224275025,
        "lon": -106.41248363523309,
        "alt_km": 514.7549321117503,
        "timestamp": "2025-12-27T11:23:18.578205+00:00",
        "meta_object_name": "YAM-9",
        "meta_object_id": "2025-276AE",
        "meta_epoch": "2025-12-27T04:17:20.245056",
        "meta_mean_motion": 15.17639328,
        "meta_eccentricity": 0.0001633,
        "meta_inclination": 97.4412,
        "meta_ra_of_asc_node": 72.6956,
        "meta_arg_of_pericenter": 229.9548,
        "meta_mean_anomaly": 130.1543,
        "meta_ephemeris_type": 0,
        "meta_classification_type": "U",
        "meta_norad_cat_id": 66694,
        "meta_element_set_no": 999,
        "meta_rev_at_epoch": 431,
        "meta_bstar": 0.00062486,
        "meta_mean_motion_dot": 0.0001252,
        "meta_mean_motion_ddot": 0,
        "tle_line1": "1 66694U 25276AE  25361.17870654  .00012520  00000+0  62486-3 0  9996",
        "tle_line2": "2 66694  97.4412  72.6956 0001633 229.9548 130.1543 15.17639328  4317"
      },
      "geometry": {
        "type": "Point",
        "coordinates": [
          -106.41248363523309,
          4.590112224275025
        ]
      }
    },
    {
      "type": "Feature",
      "properties": {
        "norad_id": 66695,
        "name": "IRIDE FM1",
        "group": "last-30-days",
        "lat": -63.53057164068021,
        "lon": -122.20346196947519,
        "alt_km": 518.3340804658137,
        "timestamp": "2025-12-27T11:23:18.578215+00:00",
        "meta_object_name": "IRIDE FM1",
        "meta_object_id": "2025-276AF",
        "meta_epoch": "2025-12-27T03:59:18.364128",
        "meta_mean_motion": 15.18339534,
        "meta_eccentricity": 0.0002185,
        "meta_inclination": 97.4402,
        "meta_ra_of_asc_node": 72.7092,
        "meta_arg_of_pericenter": 144.0483,
        "meta_mean_anomaly": 216.0898,
        "meta_ephemeris_type": 0,
        "meta_classification_type": "U",
        "meta_norad_cat_id": 66695,
        "meta_element_set_no": 999,
        "meta_rev_at_epoch": 431,
        "meta_bstar": 0.001352,
        "meta_mean_motion_dot": 0.00027776,
        "meta_mean_motion_ddot": 0,
        "tle_line1": "1 66695U 25276AF  25361.16618477  .00027776  00000+0  13520-2 0  9992",
        "tle_line2": "2 66695  97.4402  72.7092 0002185 144.0483 216.0898 15.18339534  4311"
      },
      "geometry": {
        "type": "Point",
        "coordinates": [
          -122.20346196947519,
          -63.53057164068021
        ]
      }
    },
    {
      "type": "Feature",
      "properties": {
        "norad_id": 66696,
        "name": "IRIDE FM2",
        "group": "last-30-days",
        "lat": 20.41484623063581,
        "lon": -104.24380235319299,
        "alt_km": 513.388192700364,
        "timestamp": "2025-12-27T11:23:18.578225+00:00",
        "meta_object_name": "IRIDE FM2",
        "meta_object_id": "2025-276AG",
        "meta_epoch": "2025-12-27T04:21:29.448576",
        "meta_mean_motion": 15.17468508,
        "meta_eccentricity": 0.0002552,
        "meta_inclination": 97.4382,
        "meta_ra_of_asc_node": 72.6814,
        "meta_arg_of_pericenter": 244.3515,
        "meta_mean_anomaly": 115.7456,
        "meta_ephemeris_type": 0,
        "meta_classification_type": "U",
        "meta_norad_cat_id": 66696,
        "meta_element_set_no": 999,
        "meta_rev_at_epoch": 431,
        "meta_bstar": 0.00033278,
        "meta_mean_motion_dot": 6.599e-05,
        "meta_mean_motion_ddot": 0,
        "tle_line1": "1 66696U 25276AG  25361.18159084  .00006599  00000+0  33278-3 0  9992",
        "tle_line2": "2 66696  97.4382  72.6814 0002552 244.3515 115.7456 15.17468508  4316"
      },
      "geometry": {
        "type": "Point",
        "coordinates": [
          -104.24380235319299,
          20.41484623063581
        ]
      }
    },
    {
      "type": "Feature",
      "properties": {
        "norad_id": 66697,
        "name": "IRIDE FM3",
        "group": "last-30-days",
        "lat": -55.85535553787125,
        "lon": -118.10461149035208,
        "alt_km": 518.2380432266336,
        "timestamp": "2025-12-27T11:23:18.578235+00:00",
        "meta_object_name": "IRIDE FM3",
        "meta_object_id": "2025-276AH",
        "meta_epoch": "2025-12-27T04:01:22.221120",
        "meta_mean_motion": 15.18236816,
        "meta_eccentricity": 0.0001518,
        "meta_inclination": 97.4381,
        "meta_ra_of_asc_node": 72.7004,
        "meta_arg_of_pericenter": 147.8001,
        "meta_mean_anomaly": 212.3326,
        "meta_ephemeris_type": 0,
        "meta_classification_type": "U",
        "meta_norad_cat_id": 66697,
        "meta_element_set_no": 999,
        "meta_rev_at_epoch": 431,
        "meta_bstar": 0.00056644,
        "meta_mean_motion_dot": 0.00011538,
        "meta_mean_motion_ddot": 0,
        "tle_line1": "1 66697U 25276AH  25361.16761830  .00011538  00000+0  56644-3 0  9990",
        "tle_line2": "2 66697  97.4381  72.7004 0001518 147.8001 212.3326 15.18236816  4312"
      },
      "geometry": {
        "type": "Point",
        "coordinates": [
          -118.10461149035208,
          -55.85535553787125
        ]
      }
    }
  ]
}